[{"OBJECT_NAME":"SHIYAN-1 (SY-1)","OBJECT_ID":"2004-012A","EPOCH":"2026-03-09T17:40:34.066560","MEAN_MOTION":15.31043463,"ECCENTRICITY":0.00058726,"INCLINATION":97.8764,"RA_OF_ASC_NODE":140.5238,"ARG_OF_PERICENTER":23.6952,"MEAN_ANOMALY":336.4557,"EPHEMERIS_TYPE":0,"CLASSIFICATION_TYPE":"U","NORAD_CAT_ID":28220,"ELEMENT_SET_NO":999,"REV_AT_EPOCH":19586,"BSTAR":0.00054854449,"MEAN_MOTION_DOT":0.00016393,"MEAN_MOTION_DDOT":0},{"OBJECT_NAME":"STARLINK-35905","OBJECT_ID":"2025-294U","EPOCH":"2026-03-08T06:51:18.343008","MEAN_MOTION":15.27561392,"ECCENTRICITY":0.00010914,"INCLINATION":43.0005,"RA_OF_ASC_NODE":46.0731,"ARG_OF_PERICENTER":271.0703,"MEAN_ANOMALY":89.0024,"EPHEMERIS_TYPE":0,"CLASSIFICATION_TYPE":"U","NORAD_CAT_ID":67048,"ELEMENT_SET_NO":999,"REV_AT_EPOCH":1458,"BSTAR":0.001640366,"MEAN_MOTION_DOT":0.00045128,"MEAN_MOTION_DDOT":0}]
